IRIDIUM 119             
1 42959U 17061E   24327.37369143  .00000669  00000+0  23164-3 0  9997
2 42959  86.3959 264.1592 0002565  82.1669 277.9818 14.34222757372854
IRIDIUM 107             
1 42960U 17061F   24328.36947928  .00000752  00000+0  26153-3 0  9996
2 42960  86.3959 263.7608 0002381  73.6575 286.4882 14.34222120373015
IRIDIUM 132             
1 42961U 17061G   24328.37581704 -.00000001  00000+0 -75205-5 0  9997
2 42961  86.3958 263.7419 0002248  78.6296 281.5153 14.34218426373002
IRIDIUM 136             
1 42962U 17061H   24327.36102917  .00000673  00000+0  23335-3 0  9999
2 42962  86.3958 264.1697 0002482  79.0442 281.1033 14.34218055372879
IRIDIUM 139             
1 42963U 17061J   24327.78595672  .00000013  00000+0 -23287-5 0  9997
2 42963  86.3958 264.0445 0002396  79.4703 280.6763 14.34218451372940
IRIDIUM 125             
1 42964U 17061K   24327.35465976  .00000658  00000+0  22792-3 0  9996
2 42964  86.3962 264.2757 0002842  79.8884 280.2632 14.34220203372897
IRIDIUM 135             
1 43070U 17083A   24328.02647152 -.00000074  00000+0 -33542-4 0  9992
2 43070  86.4020 200.7013 0001642  89.1274 271.0110 14.34217207362287
IRIDIUM 138             
1 43071U 17083B   24327.70300053  .00000466  00000+0  15922-3 0  9997
2 43071  86.4009 200.5332 0002704  91.3208 268.8298 14.34218293362220
